NORAD_CAT_ID,OBJECT_NAME,OBJECT_TYPE,EPOCH,MEAN_MOTION,ECCENTRICITY,INCLINATION,RA_OF_ASC_NODE,ARG_OF_PERICENTER,MEAN_ANOMALY,BSTAR,MEAN_MOTION_DOT,MEAN_MOTION_DDOT,TLE_LINE0,TLE_LINE1,TLE_LINE2,SEMIMAJOR_AXIS,PERIOD,APOGEE,PERIGEE,DECAYED
53550.0,STARLINK-4518,PAYLOAD,2023-11-03 07:53:02,15.08844336,0.0001761,53.2183,312.9691,96.4227,263.6966,3.9032e-05,3.33e-06,0.0,0 STARLINK-4518,1 53550U 22101Z   23307.32850076  .00000333  00000-0  39032-4 0  9990,2 53550  53.2183 312.9691 0001761  96.4227 263.6966 15.08844336 66875,6917.867,95.437,540.95,538.514,0.0
53550.0,STARLINK-4518,PAYLOAD,2023-11-03 17:25:21,15.08845253,0.0001673,53.2179,311.1843,90.9291,269.1893,-5.7405e-06,-3.79e-06,0.0,0 STARLINK-4518,1 53550U 22101Z   23307.72594095 -.00000379  00000-0 -57405-5 0  9997,2 53550  53.2179 311.1843 0001673  90.9291 269.1893 15.08845253 67591,6917.864,95.437,540.887,538.572,0.0
53550.0,STARLINK-4518,PAYLOAD,2023-11-04 04:33:04,15.08825542,0.0001333,53.2174,309.0993,80.3061,279.8081,8.5683e-05,1.076e-05,0.0,0 STARLINK-4518,1 53550U 22101Z   23308.18963292  .00001076  00000-0  85683-4 0  9998,2 53550  53.2174 309.0993 0001333  80.3061 279.8081 15.08825542 67001,6917.925,95.438,540.712,538.867,0.0
53550.0,STARLINK-4518,PAYLOAD,2023-11-04 07:43:50,15.08835726,0.0001838,53.2192,308.5068,86.5318,273.5885,5.7696e-05,6.3e-06,0.0,0 STARLINK-4518,1 53550U 22101Z   23308.32210870  .00000630  00000-0  57696-4 0  9999,2 53550  53.2192 308.5068 0001838  86.5318 273.5885 15.08835726 67021,6917.893,95.438,541.03,538.487,0.0
53550.0,STARLINK-4518,PAYLOAD,2023-11-04 17:16:08,15.0883961,0.0001582,53.2173,306.7236,91.6336,268.4838,7.2664e-05,8.69e-06,0.0,0 STARLINK-4518,1 53550U 22101Z   23308.71954529  .00000869  00000-0  72664-4 0  9994,2 53550  53.2173 306.7236 0001582  91.6336 268.4838 15.08839610 67746,6917.882,95.438,540.841,538.652,0.0
53550.0,STARLINK-4518,PAYLOAD,2023-11-05 04:23:50,15.08846315,0.0001611,53.2171,304.6416,82.5511,277.5664,0.00012212,1.656e-05,0.0,0 STARLINK-4518,1 53550U 22101Z   23309.18322217  .00001656  00000-0  12212-3 0  9996,2 53550  53.2171 304.6416 0001611  82.5511 277.5664 15.08846315 67151,6917.861,95.437,540.841,538.612,0.0
53550.0,STARLINK-4518,PAYLOAD,2023-11-05 09:09:59,15.08859286,0.0001696,53.2158,303.7487,97.8454,262.2731,5.1738e-05,5.36e-06,0.0,0 STARLINK-4518,1 53550U 22101Z   23309.38193314  .00000536  00000-0  51738-4 0  9995,2 53550  53.2158 303.7487 0001696  97.8454 262.2731 15.08859286 67182,6917.821,95.436,540.86,538.513,0.0
53550.0,STARLINK-4518,PAYLOAD,2023-11-06 05:49:59,15.08871541,0.00014,53.216,299.8835,87.7279,272.3873,0.0005514,8.506e-05,0.0,0 STARLINK-4518,1 53550U 22101Z   23310.24304752  .00008506  00000-0  55140-3 0  9997,2 53550  53.2160 299.8835 0001400  87.7279 272.3873 15.08871541 67977,6917.784,95.436,540.617,538.68,0.0
53550.0,STARLINK-4518,PAYLOAD,2023-11-07 04:05:25,15.08806934,0.0001273,53.2172,295.7205,91.36,268.7538,-0.00060276,-9.859e-05,0.0,0 STARLINK-4518,1 53550U 22101Z   23311.17043467 -.00009859  00000-0 -60276-3 0  9993,2 53550  53.2172 295.7205 0001273  91.3600 268.7538 15.08806934 67457,6917.981,95.44,540.727,538.966,0.0
53550.0,STARLINK-4518,PAYLOAD,2023-11-07 08:51:34,15.08810707,0.0001415,53.2171,294.8248,109.0902,251.0243,-0.00049181,-8.1e-05,0.0,0 STARLINK-4518,1 53550U 22101Z   23311.36915425 -.00008100  00000-0 -49181-3 0  9996,2 53550  53.2171 294.8248 0001415 109.0902 251.0243 15.08810707 68141,6917.97,95.439,540.814,538.856,0.0
53550.0,STARLINK-4518,PAYLOAD,2023-11-08 02:20:49,15.08830546,0.0001061,53.217,291.5555,88.7124,271.3989,8.0808e-07,-2.75e-06,0.0,0 STARLINK-4518,1 53550U 22101Z   23312.09779587 -.00000275  00000-0  80808-6 0  9992,2 53550  53.2170 291.5555 0001061  88.7124 271.3989 15.08830546 67594,6917.909,95.438,540.508,539.04,0.0
53550.0,STARLINK-4518,PAYLOAD,2023-11-08 05:31:35,15.08848353,0.0001109,53.2172,290.9607,99.6709,260.4409,0.00010622,1.403e-05,0.0,0 STARLINK-4518,1 53550U 22101Z   23312.23026839  .00001403  00000-0  10622-3 0  9990,2 53550  53.2172 290.9607 0001109  99.6709 260.4409 15.08848353 67614,6917.855,95.437,540.487,538.953,0.0
53550.0,STARLINK-4518,PAYLOAD,2023-11-09 03:46:59,15.08840004,9.62e-05,53.2171,286.8006,98.3654,261.7447,0.00060126,9.294e-05,0.0,0 STARLINK-4518,1 53550U 22101Z   23313.15763758  .00009294  00000-0  60126-3 0  9990,2 53550  53.2171 286.8006 0000962  98.3654 261.7447 15.08840004 67757,6917.88,95.438,540.411,539.08,0.0
53550.0,STARLINK-4518,PAYLOAD,2023-11-09 05:22:22,15.08845409,0.000106,53.2173,286.5038,104.965,255.146,0.00057927,8.945e-05,0.0,0 STARLINK-4518,1 53550U 22101Z   23313.22387486  .00008945  00000-0  57927-3 0  9995,2 53550  53.2173 286.5038 0001060 104.9650 255.1460 15.08845409 68422,6917.864,95.437,540.462,538.996,0.0
53550.0,STARLINK-4518,PAYLOAD,2023-11-10 05:13:09,15.08845728,0.0001129,53.2165,282.0408,92.784,267.3282,5.6457e-06,-1.98e-06,0.0,0 STARLINK-4518,1 53550U 22101Z   23314.21747232 -.00000198  00000-0  56457-5 0  9996,2 53550  53.2165 282.0408 0001129  92.7840 267.3282 15.08845728 67910,6917.863,95.437,540.509,538.947,0.0
53550.0,STARLINK-4518,PAYLOAD,2023-11-10 14:45:28,15.08846376,0.0001136,53.2165,280.2562,90.5106,269.6017,3.6608e-05,2.95e-06,0.0,0 STARLINK-4518,1 53550U 22101Z   23314.61491057  .00000295  00000-0  36608-4 0  9993,2 53550  53.2165 280.2562 0001136  90.5106 269.6017 15.08846376 68631,6917.861,95.437,540.512,538.94,0.0
53550.0,STARLINK-4518,PAYLOAD,2023-11-11 06:39:19,15.0884036,0.0001614,53.2181,277.2815,87.1134,273.0043,0.0001594,2.25e-05,0.0,0 STARLINK-4518,1 53550U 22101Z   23315.27731289  .00002250  00000-0  15940-3 0  9998,2 53550  53.2181 277.2815 0001614  87.1134 273.0043 15.08840360 68073,6917.879,95.438,540.861,538.628,0.0
53550.0,STARLINK-4518,PAYLOAD,2023-11-12 06:30:06,15.08845304,0.0001631,53.2183,272.8206,93.6393,266.4785,0.00012711,1.736e-05,0.0,0 STARLINK-4518,1 53550U 22101Z   23316.27091148  .00001736  00000-0  12711-3 0  9993,2 53550  53.2183 272.8206 0001631  93.6393 266.4785 15.08845304 68889,6917.864,95.437,540.857,538.601,0.0
53550.0,STARLINK-4518,PAYLOAD,2023-11-12 14:27:02,15.08843556,0.0001587,53.2177,271.3348,87.6871,272.4302,3.5605e-05,2.79e-06,0.0,0 STARLINK-4518,1 53550U 22101Z   23316.60211435  .00000279  00000-0  35605-4 0  9992,2 53550  53.2177 271.3348 0001587  87.6871 272.4302 15.08843556 68279,6917.87,95.437,540.832,538.637,0.0
53550.0,STARLINK-4518,PAYLOAD,2023-11-13 04:45:30,15.08847241,0.0001438,53.2182,268.6579,96.0577,264.0579,2.8686e-05,1.69e-06,0.0,0 STARLINK-4518,1 53550U 22101Z   23317.19827264  .00000169  00000-0  28686-4 0  9999,2 53550  53.2182 268.6579 0001438  96.0577 264.0579 15.08847241 69024,6917.858,95.437,540.718,538.728,0.0
53550.0,STARLINK-4518,PAYLOAD,2023-11-13 20:39:22,15.08841867,0.0001528,53.2178,265.6844,90.6492,269.4675,-5.5074e-06,-3.76e-06,0.0,0 STARLINK-4518,1 53550U 22101Z   23317.86067766 -.00000376  00000-0 -55074-5 0  9990,2 53550  53.2178 265.6844 0001528  90.6492 269.4675 15.08841867 69122,6917.875,95.437,540.797,538.683,0.0
53550.0,STARLINK-4518,PAYLOAD,2023-11-14 03:00:53,15.08858274,0.0001734,53.2181,264.4938,86.1855,273.9335,0.00013198,1.814e-05,0.0,0 STARLINK-4518,1 53550U 22101Z   23318.12562332  .00001814  00000-0  13198-3 0  9994,2 53550  53.2181 264.4938 0001734  86.1855 273.9335 15.08858274 68503,6917.825,95.436,540.889,538.49,0.0
53550.0,STARLINK-4518,PAYLOAD,2023-11-14 06:11:38,15.08870616,0.0001708,53.218,263.9009,85.0483,275.0704,0.00028209,4.208e-05,0.0,0 STARLINK-4518,1 53550U 22101Z   23318.25808979  .00004208  00000-0  28209-3 0  9997,2 53550  53.2180 263.9009 0001708  85.0483 275.0704 15.08870616 68520,6917.787,95.436,540.833,538.47,0.0
53550.0,STARLINK-4518,PAYLOAD,2023-11-15 02:51:41,15.08841898,0.0001611,53.2174,260.0353,86.6318,273.4859,-1.5028e-05,-5.27e-06,0.0,0 STARLINK-4518,1 53550U 22101Z   23319.11923525 -.00000527  00000-0 -15028-4 0  9996,2 53550  53.2174 260.0353 0001611  86.6318 273.4859 15.08841898 68657,6917.875,95.437,540.854,538.625,0.0
53550.0,STARLINK-4518,PAYLOAD,2023-11-15 06:02:28,15.08842897,0.0001592,53.2174,259.4391,91.4642,268.6532,-6.3291e-06,-3.89e-06,0.0,0 STARLINK-4518,1 53550U 22101Z   23319.25171367 -.00000389  00000-0 -63291-5 0  9992,2 53550  53.2174 259.4391 0001592  91.4642 268.6532 15.08842897 69333,6917.872,95.437,540.838,538.635,0.0
53550.0,STARLINK-4518,PAYLOAD,2023-11-16 02:42:29,15.08842411,0.0001596,53.2179,255.5714,102.1404,257.9767,-3.0304e-05,-7.7e-06,0.0,0 STARLINK-4518,1 53550U 22101Z   23320.11283603 -.00000770  00000-0 -30304-4 0  9998,2 53550  53.2179 255.5714 0001596 102.1404 257.9767 15.08842411 69461,6917.873,95.437,540.842,538.634,0.0
53550.0,STARLINK-4518,PAYLOAD,2023-11-17 02:33:16,15.08837328,0.00016,53.2177,251.111,93.0565,267.061,5.4598e-05,5.81e-06,0.0,0 STARLINK-4518,1 53550U 22101Z   23321.10643822  .00000581  00000-0  54598-4 0  9990,2 53550  53.2177 251.1110 0001600  93.0565 267.0610 15.08837328 68956,6917.889,95.438,540.86,538.647,0.0
53550.0,STARLINK-4518,PAYLOAD,2023-11-17 12:05:35,15.08833393,0.0001642,53.2177,249.3272,85.1179,275.0,0.00010732,1.42e-05,0.0,0 STARLINK-4518,1 53550U 22101Z   23321.50388141  .00001420  00000-0  10732-3 0  9998,2 53550  53.2177 249.3272 0001642  85.1179 275.0000 15.08833393 69673,6917.901,95.438,540.902,538.63,0.0
53550.0,STARLINK-4518,PAYLOAD,2023-11-17 21:37:54,15.08835384,0.0001584,53.2172,247.5471,97.4669,262.6503,3.5932e-05,2.84e-06,0.0,0 STARLINK-4518,1 53550U 22101Z   23321.90132288  .00000284  00000-0  35932-4 0  9998,2 53550  53.2172 247.5471 0001584  97.4669 262.6503 15.08835384 69733,6917.894,95.438,540.855,538.664,0.0
53550.0,STARLINK-4518,PAYLOAD,2023-11-18 11:56:22,15.08838935,0.0001458,53.2163,244.8688,88.7448,271.3711,7.5779e-05,9.18e-06,0.0,0 STARLINK-4518,1 53550U 22101Z   23322.49748033  .00000918  00000-0  75779-4 0  9991,2 53550  53.2163 244.8688 0001458  88.7448 271.3711 15.08838935 69161,6917.884,95.438,540.757,538.74,0.0
